[
    {
        "Altitude(m)": 554559.2687465277,
        "Argument of Periapsis(deg)": 0.026491964442854003,
        "Eccentricity": 0.0,
        "Inclination(deg)": 53.0,
        "Latitude(deg)": 26.71523123685977,
        "Longitude(deg)": 69.65737724636188,
        "Mean Anomaly(deg)": 145.82097147031033,
        "RAAN(deg)": 14.960573474112067,
        "Satellite Name": "Starlink Shell 1 72",
        "Satellite Number": 72,
        "Semi-Major Axis(m)": 6931778.249405717,
        "Time(s)": 760
    },
    {
        "Altitude(m)": 554495.7730058536,
        "Argument of Periapsis(deg)": 0.02684054292236524,
        "Eccentricity": 0.0,
        "Inclination(deg)": 53.0,
        "Latitude(deg)": 26.24847222638117,
        "Longitude(deg)": 70.08573985074914,
        "Mean Anomaly(deg)": 146.44780267386707,
        "RAAN(deg)": 14.960054704034594,
        "Satellite Name": "Starlink Shell 1 72",
        "Satellite Number": 72,
        "Semi-Major Axis(m)": 6931778.249405717,
        "Time(s)": 770
    },
    {
        "Altitude(m)": 554433.7619651154,
        "Argument of Periapsis(deg)": 0.027189121401876473,
        "Eccentricity": 0.0,
        "Inclination(deg)": 53.0,
        "Latitude(deg)": 25.780160479586467,
        "Longitude(deg)": 70.51036093270736,
        "Mean Anomaly(deg)": 147.07463387742376,
        "RAAN(deg)": 14.95953593395712,
        "Satellite Name": "Starlink Shell 1 72",
        "Satellite Number": 72,
        "Semi-Major Axis(m)": 6931778.249405717,
        "Time(s)": 780
    },
    {
        "Altitude(m)": 554373.2853363674,
        "Argument of Periapsis(deg)": 0.02753769988138771,
        "Eccentricity": 0.0,
        "Inclination(deg)": 53.0,
        "Latitude(deg)": 25.310339186267672,
        "Longitude(deg)": 70.93133470732971,
        "Mean Anomaly(deg)": 147.70146508098048,
        "RAAN(deg)": 14.95901716387965,
        "Satellite Name": "Starlink Shell 1 72",
        "Satellite Number": 72,
        "Semi-Major Axis(m)": 6931778.249405717,
        "Time(s)": 790
    },
    {
        "Altitude(m)": 554314.3922394668,
        "Argument of Periapsis(deg)": 0.02788627836089895,
        "Eccentricity": 0.0,
        "Inclination(deg)": 53.0,
        "Latitude(deg)": 24.839050640303206,
        "Longitude(deg)": 71.34875359275522,
        "Mean Anomaly(deg)": 148.3282962845372,
        "RAAN(deg)": 14.958498393802175,
        "Satellite Name": "Starlink Shell 1 72",
        "Satellite Number": 72,
        "Semi-Major Axis(m)": 6931778.249405717,
        "Time(s)": 800
    },
    {
        "Altitude(m)": 554257.1311756279,
        "Argument of Periapsis(deg)": 0.02823485684041019,
        "Eccentricity": 0.0,
        "Inclination(deg)": 53.0,
        "Latitude(deg)": 24.366336266934773,
        "Longitude(deg)": 71.76270872702926,
        "Mean Anomaly(deg)": 148.95512748809392,
        "RAAN(deg)": 14.957979623724702,
        "Satellite Name": "Starlink Shell 1 72",
        "Satellite Number": 72,
        "Semi-Major Axis(m)": 6931778.249405717,
        "Time(s)": 810
    },
    {
        "Altitude(m)": 554201.5500012393,
        "Argument of Periapsis(deg)": 0.028583435319921423,
        "Eccentricity": 0.0,
        "Inclination(deg)": 53.0,
        "Latitude(deg)": 23.892236649515507,
        "Longitude(deg)": 72.17329048668284,
        "Mean Anomaly(deg)": 149.58195869165064,
        "RAAN(deg)": 14.957460853647229,
        "Satellite Name": "Starlink Shell 1 72",
        "Satellite Number": 72,
        "Semi-Major Axis(m)": 6931778.249405717,
        "Time(s)": 820
    },
    {
        "Altitude(m)": 554147.6959019535,
        "Argument of Periapsis(deg)": 0.028932013799432665,
        "Eccentricity": 0.0,
        "Inclination(deg)": 53.0,
        "Latitude(deg)": 23.416791555726366,
        "Longitude(deg)": 72.580587493998,
        "Mean Anomaly(deg)": 150.20878989520736,
        "RAAN(deg)": 14.956942083569759,
        "Satellite Name": "Starlink Shell 1 72",
        "Satellite Number": 72,
        "Semi-Major Axis(m)": 6931778.249405717,
        "Time(s)": 830
    },
    {
        "Altitude(m)": 554095.6153671069,
        "Argument of Periapsis(deg)": 0.029280592278943897,
        "Eccentricity": 0.0,
        "Inclination(deg)": 53.0,
        "Latitude(deg)": 22.940039963261302,
        "Longitude(deg)": 72.98468713856096,
        "Mean Anomaly(deg)": 150.83562109876405,
        "RAAN(deg)": 14.956423313492282,
        "Satellite Name": "Starlink Shell 1 72",
        "Satellite Number": 72,
        "Semi-Major Axis(m)": 6931778.249405717,
        "Time(s)": 840
    },
    {
        "Altitude(m)": 554045.354164409,
        "Argument of Periapsis(deg)": 0.029629170758455132,
        "Eccentricity": 0.0,
        "Inclination(deg)": 53.0,
        "Latitude(deg)": 22.462020084982864,
        "Longitude(deg)": 73.3856761000896,
        "Mean Anomaly(deg)": 151.46245230232077,
        "RAAN(deg)": 14.955904543414809,
        "Satellite Name": "Starlink Shell 1 72",
        "Satellite Number": 72,
        "Semi-Major Axis(m)": 6931778.249405717,
        "Time(s)": 850
    },
    {
        "Altitude(m)": 553996.9573149782,
        "Argument of Periapsis(deg)": 0.02997774923796637,
        "Eccentricity": 0.0,
        "Inclination(deg)": 53.0,
        "Latitude(deg)": 21.98276939354796,
        "Longitude(deg)": 73.78363919143797,
        "Mean Anomaly(deg)": 152.0892835058775,
        "RAAN(deg)": 14.955385773337339,
        "Satellite Name": "Starlink Shell 1 72",
        "Satellite Number": 72,
        "Semi-Major Axis(m)": 6931778.249405717,
        "Time(s)": 860
    },
    {
        "Altitude(m)": 553950.4690687129,
        "Argument of Periapsis(deg)": 0.030326327717477602,
        "Eccentricity": 0.0,
        "Inclination(deg)": 53.0,
        "Latitude(deg)": 21.502324645512196,
        "Longitude(deg)": 74.17866072408764,
        "Mean Anomaly(deg)": 152.71611470943418,
        "RAAN(deg)": 14.954867003259865,
        "Satellite Name": "Starlink Shell 1 72",
        "Satellite Number": 72,
        "Semi-Major Axis(m)": 6931778.249405717,
        "Time(s)": 870
    },
    {
        "Altitude(m)": 553905.9328800029,
        "Argument of Periapsis(deg)": 0.030674906196988847,
        "Eccentricity": 0.0,
        "Inclination(deg)": 53.0,
        "Latitude(deg)": 21.02072190491304,
        "Longitude(deg)": 74.57082335310253,
        "Mean Anomaly(deg)": 153.3429459129909,
        "RAAN(deg)": 14.954348233182392,
        "Satellite Name": "Starlink Shell 1 72",
        "Satellite Number": 72,
        "Semi-Major Axis(m)": 6931778.249405717,
        "Time(s)": 880
    },
    {
        "Altitude(m)": 553863.3913838175,
        "Argument of Periapsis(deg)": 0.031023484676500086,
        "Eccentricity": 0.0,
        "Inclination(deg)": 53.0,
        "Latitude(deg)": 20.537996566342336,
        "Longitude(deg)": 74.96020860387536,
        "Mean Anomaly(deg)": 153.96977711654765,
        "RAAN(deg)": 14.953829463104922,
        "Satellite Name": "Starlink Shell 1 72",
        "Satellite Number": 72,
        "Semi-Major Axis(m)": 6931778.249405717,
        "Time(s)": 890
    },
    {
        "Altitude(m)": 553822.8863721564,
        "Argument of Periapsis(deg)": 0.03137206315601132,
        "Eccentricity": 0.0,
        "Inclination(deg)": 53.0,
        "Latitude(deg)": 20.05418337751291,
        "Longitude(deg)": 75.34689739960093,
        "Mean Anomaly(deg)": 154.59660832010434,
        "RAAN(deg)": 14.953310693027447,
        "Satellite Name": "Starlink Shell 1 72",
        "Satellite Number": 72,
        "Semi-Major Axis(m)": 6931778.249405717,
        "Time(s)": 900
    },
    {
        "Altitude(m)": 553784.4587708963,
        "Argument of Periapsis(deg)": 0.03172064163552255,
        "Eccentricity": 0.0,
        "Inclination(deg)": 53.0,
        "Latitude(deg)": 19.56931646132697,
        "Longitude(deg)": 75.73096907651664,
        "Mean Anomaly(deg)": 155.22343952366109,
        "RAAN(deg)": 14.952791922949974,
        "Satellite Name": "Starlink Shell 1 72",
        "Satellite Number": 72,
        "Semi-Major Axis(m)": 6931778.249405717,
        "Time(s)": 910
    },
    {
        "Altitude(m)": 553748.1486170456,
        "Argument of Periapsis(deg)": 0.0320692201150338,
        "Eccentricity": 0.0,
        "Inclination(deg)": 53.0,
        "Latitude(deg)": 19.083429337456955,
        "Longitude(deg)": 76.11250191258009,
        "Mean Anomaly(deg)": 155.85027072721778,
        "RAAN(deg)": 14.9522731528725,
        "Satellite Name": "Starlink Shell 1 72",
        "Satellite Number": 72,
        "Semi-Major Axis(m)": 6931778.249405717,
        "Time(s)": 920
    },
    {
        "Altitude(m)": 553713.9950364,
        "Argument of Periapsis(deg)": 0.032417798594545036,
        "Eccentricity": 0.0,
        "Inclination(deg)": 53.0,
        "Latitude(deg)": 18.596554943447238,
        "Longitude(deg)": 76.49157365663703,
        "Mean Anomaly(deg)": 156.4771019307745,
        "RAAN(deg)": 14.95175438279503,
        "Satellite Name": "Starlink Shell 1 72",
        "Satellite Number": 72,
        "Semi-Major Axis(m)": 6931778.249405717,
        "Time(s)": 930
    },
    {
        "Altitude(m)": 553682.0362216197,
        "Argument of Periapsis(deg)": 0.03276637707405627,
        "Eccentricity": 0.0,
        "Inclination(deg)": 53.0,
        "Latitude(deg)": 18.1087256553455,
        "Longitude(deg)": 76.86826054513949,
        "Mean Anomaly(deg)": 157.10393313433121,
        "RAAN(deg)": 14.951235612717557,
        "Satellite Name": "Starlink Shell 1 72",
        "Satellite Number": 72,
        "Semi-Major Axis(m)": 6931778.249405717,
        "Time(s)": 940
    }
]